0 SCOUT B R/B
1 02206U 66052B   13283.19477371  .00000292  00000-0  44475-3 0  7858
2 02206 040.8723 014.5248 2215702 291.2197 046.6750 10.13209980747313
0 SCOUT B R/B
1 02206U 66052B   13287.23873398  .00000451  00000-0  67689-3 0  7866
2 02206 040.8694 004.5058 2215315 303.5223 037.2711 10.13211680747723
0 SCOUT B R/B
1 02206U 66052B   13291.48013762  .00000343  00000-0  52742-3 0  7874
2 02206 040.8662 353.9963 2215047 316.4247 028.0929 10.13216881748150
0 SCOUT B R/B
1 02206U 66052B   13295.52438305  .00000175  00000-0  29323-3 0  7880
2 02206 040.8631 343.9732 2214980 328.7344 019.8295 10.13221449748563
